CCSDS_OMM_VERS,COMMENT,CREATION_DATE,ORIGINATOR,OBJECT_NAME,OBJECT_ID,CENTER_NAME,REF_FRAME,TIME_SYSTEM,MEAN_ELEMENT_THEORY,EPOCH,MEAN_MOTION,ECCENTRICITY,INCLINATION,RA_OF_ASC_NODE,ARG_OF_PERICENTER,MEAN_ANOMALY,EPHEMERIS_TYPE,CLASSIFICATION_TYPE,NORAD_CAT_ID,ELEMENT_SET_NO,REV_AT_EPOCH,BSTAR,MEAN_MOTION_DOT,MEAN_MOTION_DDOT,SEMIMAJOR_AXIS,PERIOD,APOAPSIS,PERIAPSIS,OBJECT_TYPE,RCS_SIZE,COUNTRY_CODE,LAUNCH_DATE,SITE,DECAY_DATE,FILE,GP_ID,TLE_LINE0,TLE_LINE1,TLE_LINE2
"2.0","GENERATED VIA SPACE-TRACK.ORG API","2020-09-07T22:26:10","18 SPCS","COSMOS 1818","1987-011A","EARTH","TEME","UTC","SGP4","2020-09-07T18:51:40.496832","14.31458348","0.00142130","65.0122","32.9033","283.3645","76.5854","0","U","17369","999","80732","0.00000106330000","-0.00000097","0.0000000000000","7164.997","100.596","797.045","776.678","PAYLOAD","LARGE","CIS","1987-02-01","TTMTR","","2816118","160914229","0 COSMOS 1818","1 17369U 87011A   20251.78588538 -.00000097  00000-0  10633-5 0  9990","2 17369  65.0122  32.9033 0014213 283.3645  76.5854 14.31458348807322"
"2.0","GENERATED VIA SPACE-TRACK.ORG API","2020-09-07T16:45:58","18 SPCS","COSMOS 1818","1987-011A","EARTH","TEME","UTC","SGP4","2020-09-07T13:49:51.814560","14.31458348","0.00142050","65.0122","33.4902","283.3376","76.6124","0","U","17369","999","80701","0.00000003290600","-0.00000100","0.0000000000000","7164.997","100.596","797.040","776.684","PAYLOAD","LARGE","CIS","1987-02-01","TTMTR","","2816057","160877474","0 COSMOS 1818","1 17369U 87011A   20251.57629415 -.00000100 +00000-0 +32906-7 0  9991","2 17369 065.0122 033.4902 0014205 283.3376 076.6124 14.31458348807012"
"2.0","GENERATED VIA SPACE-TRACK.ORG API","2020-09-07T16:45:58","18 SPCS","IRIDIUM 136","2017-061H","EARTH","TEME","UTC","SGP4","2020-09-07T13:40:35.629248","14.34217399","0.00025030","86.4035","186.4093","90.7020","269.4463","0","U","42962","999","15260","0.00002190600000","0.00000081","0.0000000000000","7155.805","100.403","779.461","775.879","PAYLOAD","LARGE","US","2017-10-09","AFWTR","","2816057","160887921","0 IRIDIUM 136","1 42962U 17061H   20251.56985682 +.00000081 +00000-0 +21906-4 0  9998","2 42962 086.4035 186.4093 0002503 090.7020 269.4463 14.34217399152601"
"2.0","GENERATED VIA SPACE-TRACK.ORG API","2020-09-07T14:26:10","18 SPCS","IRIDIUM 136","2017-061H","EARTH","TEME","UTC","SGP4","2020-09-07T08:39:11.623680","14.34217387","0.00025000","86.4035","186.4966","90.7337","269.4146","0","U","42962","999","15257","0.00002159700000","0.00000080","0.0000000000000","7155.805","100.403","779.459","775.881","PAYLOAD","LARGE","US","2017-10-09","AFWTR","","2815960","160869194","0 IRIDIUM 136","1 42962U 17061H   20251.36055120  .00000080  00000-0  21597-4 0  9996","2 42962  86.4035 186.4966 0002500  90.7337 269.4146 14.34217387152579"
"2.0","GENERATED VIA SPACE-TRACK.ORG API","2020-09-07T04:57:35","18 SPCS","COSMOS 1818","1987-011A","EARTH","TEME","UTC","SGP4","2020-09-06T14:21:24.647616","14.31458317","0.00141770","65.0120","36.2291","283.2882","76.6621","0","U","17369","999","80687","0.00000260070000","-0.00000093","0.0000000000000","7164.997","100.596","797.020","776.704","PAYLOAD","LARGE","CIS","1987-02-01","TTMTR","","2815664","160844075","0 COSMOS 1818","1 17369U 87011A   20250.59820194 -.00000093 +00000-0 +26007-5 0  9993","2 17369 065.0120 036.2291 0014177 283.2882 076.6621 14.31458317806872"
"2.0","GENERATED VIA SPACE-TRACK.ORG API","2020-09-07T04:57:35","18 SPCS","IRIDIUM 136","2017-061H","EARTH","TEME","UTC","SGP4","2020-09-06T14:14:03.605856","14.34217273","0.00024990","86.4034","186.8167","91.1255","269.0227","0","U","42962","999","15246","0.00002040300000","0.00000077","0.0000000000000","7155.805","100.403","779.458","775.882","PAYLOAD","LARGE","US","2017-10-09","AFWTR","","2815664","160859241","0 IRIDIUM 136","1 42962U 17061H   20250.59309729 +.00000077 +00000-0 +20403-4 0  9998","2 42962 086.4034 186.8167 0002499 091.1255 269.0227 14.34217273152464"
"2.0","GENERATED VIA SPACE-TRACK.ORG API","2020-09-06T14:26:10","18 SPCS","COSMOS 1818","1987-011A","EARTH","TEME","UTC","SGP4","2020-09-06T12:40:48.421344","14.31458311","0.00141740","65.0120","36.4247","283.2810","76.6693","0","U","17369","999","80714","0.00000197460000","-0.00000095","0.0000000000000","7164.997","100.596","797.018","776.706","PAYLOAD","LARGE","CIS","1987-02-01","TTMTR","","2815400","160815225","0 COSMOS 1818","1 17369U 87011A   20250.52833821 -.00000095  00000-0  19746-5 0  9991","2 17369  65.0120  36.4247 0014174 283.2810  76.6693 14.31458311807147"
"2.0","GENERATED VIA SPACE-TRACK.ORG API","2020-09-06T17:29:23","18 SPCS","IRIDIUM 136","2017-061H","EARTH","TEME","UTC","SGP4","2020-09-06T05:51:43.595712","14.34217231","0.00024950","86.4033","186.9622","91.2481","268.9001","0","U","42962","999","15241","0.00001924700000","0.00000074","0.0000000000000","7155.805","100.403","779.456","775.885","PAYLOAD","LARGE","US","2017-10-09","AFWTR","","2815532","160835825","0 IRIDIUM 136","1 42962U 17061H   20250.24425458 +.00000074 +00000-0 +19247-4 0  9999","2 42962 086.4033 186.9622 0002495 091.2481 268.9001 14.34217231152415"
"2.0","GENERATED VIA SPACE-TRACK.ORG API","2020-09-06T17:29:23","18 SPCS","COSMOS 1818","1987-011A","EARTH","TEME","UTC","SGP4","2020-09-06T02:37:11.064576","14.31458291","0.00141650","65.0120","37.5985","283.2820","76.6685","0","U","17369","999","80680","0.00000402470000","-0.00000090","0.0000000000000","7164.997","100.596","797.011","776.713","PAYLOAD","LARGE","CIS","1987-02-01","TTMTR","","2815532","160824917","0 COSMOS 1818","1 17369U 87011A   20250.10915584 -.00000090 +00000-0 +40247-5 0  9997","2 17369 065.0120 037.5985 0014165 283.2820 076.6685 14.31458291806809"
"2.0","GENERATED VIA SPACE-TRACK.ORG API","2020-09-06T06:36:10","18 SPCS","IRIDIUM 136","2017-061H","EARTH","TEME","UTC","SGP4","2020-09-06T02:30:47.592000","14.34217187","0.00024930","86.4033","187.0204","91.2628","268.8853","0","U","42962","999","15239","0.00001771500000","0.00000069","0.0000000000000","7155.806","100.403","779.454","775.887","PAYLOAD","LARGE","US","2017-10-09","AFWTR","","2815230","160811779","0 IRIDIUM 136","1 42962U 17061H   20250.10471750  .00000069  00000-0  17715-4 0  9992","2 42962  86.4033 187.0204 0002493  91.2628 268.8853 14.34217187152395"
"2.0","GENERATED VIA SPACE-TRACK.ORG API","2020-09-06T03:47:15","18 SPCS","IRIDIUM 136","2017-061H","EARTH","TEME","UTC","SGP4","2020-09-05T21:29:23.579520","14.34217221","0.00024900","86.4033","187.1077","91.4579","268.6902","0","U","42962","999","15236","0.00001934300000","0.00000074","0.0000000000000","7155.805","100.403","779.452","775.889","PAYLOAD","LARGE","US","2017-10-09","AFWTR","","2815164","160807304","0 IRIDIUM 136","1 42962U 17061H   20249.89541180 +.00000074 +00000-0 +19343-4 0  9996","2 42962 086.4033 187.1077 0002490 091.4579 268.6902 14.34217221152367"
"2.0","GENERATED VIA SPACE-TRACK.ORG API","2020-09-06T03:47:15","18 SPCS","COSMOS 1818","1987-011A","EARTH","TEME","UTC","SGP4","2020-09-05T18:14:09.934080","14.31458253","0.00141560","65.0119","38.5767","283.2303","76.7203","0","U","17369","999","80675","0.00000408280000","-0.00000089","0.0000000000000","7164.997","100.596","797.005","776.719","PAYLOAD","LARGE","CIS","1987-02-01","TTMTR","","2815164","160793375","0 COSMOS 1818","1 17369U 87011A   20249.75983720 -.00000089 +00000-0 +40828-5 0  9996","2 17369 065.0119 038.5767 0014156 283.2303 076.7203 14.31458253806751"
"2.0","GENERATED VIA SPACE-TRACK.ORG API","2020-09-05T17:49:44","18 SPCS","COSMOS 1818","1987-011A","EARTH","TEME","UTC","SGP4","2020-09-05T13:12:21.252672","14.31458251","0.00141490","65.0119","39.1636","283.2214","76.7292","0","U","17369","999","80672","0.00000302700000","-0.00000092","0.0000000000000","7164.997","100.596","797.000","776.724","PAYLOAD","LARGE","CIS","1987-02-01","TTMTR","","2814960","160770817","0 COSMOS 1818","1 17369U 87011A   20249.55024598 -.00000092 +00000-0 +30270-5 0  9997","2 17369 065.0119 039.1636 0014149 283.2214 076.7292 14.31458251806729"
"2.0","GENERATED VIA SPACE-TRACK.ORG API","2020-09-05T14:26:09","18 SPCS","COSMOS 1818","1987-011A","EARTH","TEME","UTC","SGP4","2020-09-05T11:31:45.025536","14.31458257","0.00141470","65.0119","39.3592","283.2171","76.7335","0","U","17369","999","80699","0.00000353170000","-0.00000091","0.0000000000000","7164.997","100.596","796.998","776.726","PAYLOAD","LARGE","CIS","1987-02-01","TTMTR","","2814803","160760741","0 COSMOS 1818","1 17369U 87011A   20249.48038224 -.00000091  00000-0  35317-5 0  9996","2 17369  65.0119  39.3592 0014147 283.2171  76.7335 14.31458257806995"
"2.0","GENERATED VIA SPACE-TRACK.ORG API","2020-09-05T17:49:44","18 SPCS","IRIDIUM 136","2017-061H","EARTH","TEME","UTC","SGP4","2020-09-05T08:05:39.558624","14.34217177","0.00024820","86.4032","187.3405","91.7427","268.4053","0","U","42962","999","15228","0.00001969400000","0.00000075","0.0000000000000","7155.806","100.403","779.447","775.894","PAYLOAD","LARGE","US","2017-10-09","AFWTR","","2814960","160782981","0 IRIDIUM 136","1 42962U 17061H   20249.33726341 +.00000075 +00000-0 +19694-4 0  9999","2 42962 086.4032 187.3405 0002482 091.7427 268.4053 14.34217177152285"
"2.0","GENERATED VIA SPACE-TRACK.ORG API","2020-09-05T02:45:57","18 SPCS","IRIDIUM 136","2017-061H","EARTH","TEME","UTC","SGP4","2020-09-04T22:02:51.542304","14.34217120","0.00024800","86.4032","187.5151","91.8723","268.2757","0","U","42962","999","15222","0.00001762600000","0.00000069","0.0000000000000","7155.806","100.403","779.445","775.896","PAYLOAD","LARGE","US","2017-10-09","AFWTR","","2814552","160732210","0 IRIDIUM 136","1 42962U 17061H   20248.91865211 +.00000069 +00000-0 +17626-4 0  9998","2 42962 086.4032 187.5151 0002480 091.8723 268.2757 14.34217120152224"
